[{"OBJECT_NAME":"ZHANGHENG 1-02 (CSES-2)","OBJECT_ID":"2025-128A","EPOCH":"2026-03-07T17:41:43.439712","MEAN_MOTION":15.21023059,"ECCENTRICITY":0.00142277,"INCLINATION":97.3434,"RA_OF_ASC_NODE":195.9568,"ARG_OF_PERICENTER":108.2865,"MEAN_ANOMALY":251.992,"EPHEMERIS_TYPE":0,"CLASSIFICATION_TYPE":"U","NORAD_CAT_ID":64393,"ELEMENT_SET_NO":999,"REV_AT_EPOCH":4050,"BSTAR":1.646985e-6,"MEAN_MOTION_DOT":-3.1e-7,"MEAN_MOTION_DDOT":0},{"OBJECT_NAME":"FLOCK 4H-23","OBJECT_ID":"2025-276BN","EPOCH":"2026-03-09T18:23:34.268640","MEAN_MOTION":15.18478039,"ECCENTRICITY":0.00040265,"INCLINATION":97.4304,"RA_OF_ASC_NODE":144.0252,"ARG_OF_PERICENTER":1.961,"MEAN_ANOMALY":358.1639,"EPHEMERIS_TYPE":0,"CLASSIFICATION_TYPE":"U","NORAD_CAT_ID":66726,"ELEMENT_SET_NO":999,"REV_AT_EPOCH":1532,"BSTAR":0.00039949076,"MEAN_MOTION_DOT":8.172e-5,"MEAN_MOTION_DDOT":0}]
